# From MPEC 2024-Q14
P/1894 F1 (Denning),e,4.0270,20.6113,109.4536,4.421189,0.1060219,0.64692435,310.6512,08/26.0/2024,2000,g 15.5,4.0
# From NK 1615
P/1996 R2 (Lagerkvist),e,2.5994,40.0551,333.4524,3.773481,0.1344593,0.31445190,271.4615,08/26.0/2024,2000,g 11.5,4.0
# From MPC 75703
P/1998 VS24 (LINEAR),e,5.0284,159.0563,244.7930,4.521984,0.1024969,0.24367210,246.5096,08/26.0/2024,2000,g 13.0,2.0
# From unp
P/1999 D1 (Hermann),e,21.2552,348.7605,173.8404,5.785007,0.0708351,0.71315235,305.0773,08/26.0/2024,2000,g  9.0,4.0
# From unp
P/1999 R1 (SOHO),e,11.4306,351.6205,56.8422,2.508365,0.2480950,0.97998165,0.0000,08/21.0308/2023,2000,g  9.0,4.0
# From NK 731
P/1999 RO28 (LONEOS),e,7.5666,137.8556,231.3404,3.425740,0.1554434,0.67230864,293.1200,08/26.0/2024,2000,g 20.0,2.0
# From MPC 75704
P/1999 XN120 (Catalina),e,5.0295,285.2538,161.6721,4.179750,0.1153396,0.21100254,304.2657,08/26.0/2024,2000,g 13.5,2.0
# From unp
P/2000 QJ46 (LINEAR),e,4.4329,158.1048,222.2703,5.790802,0.0707288,0.67549618,249.4797,08/26.0/2024,2000,g  9.0,4.0
# From NK 744
P/2000 R2 (LINEAR),e,11.6800,160.2835,176.5886,3.468656,0.1525676,0.53076444,289.3203,08/26.0/2024,2000,g 18.0,4.0
# From unp
P/2001 BB50 (LINEAR-NEAT),e,10.3275,351.1521,193.3517,5.751758,0.0714501,0.58601371,262.2970,08/26.0/2024,2000,g 13.0,4.0
# From MPC 43019
P/2001 H5 (NEAT),e,8.3701,328.6528,224.6243,6.095361,0.0654945,0.59863540,212.5955,08/26.0/2024,2000,g 12.0,4.0
# From MPEC 2023-UR6
P/2002 EJ57 (LINEAR),e,4.9853,330.2472,167.2592,6.456828,0.0600724,0.59344917,135.7752,08/26.0/2024,2000,g 12.5,4.0
# From MPC 75007
C/2002 VQ94 (LINEAR),e,70.6959,35.1450,99.8229,185.6796,0.0003895,0.96356168,2.6389,08/26.0/2024,2000,g  9.5,2.0
# From MPC 50354
P/2003 F2 (NEAT),e,11.6622,358.9114,192.4705,6.509557,0.0593440,0.54160590,103.6652,08/26.0/2024,2000,g 16.5,2.0
# From MPC 50139
P/2003 QX29 (NEAT),e,11.3991,264.5334,37.6668,8.003674,0.0435281,0.47162719,344.9343,08/26.0/2024,2000,g  8.5,4.0
# From MPC105235
P/2003 T12 (SOHO),e,11.0250,174.5774,219.7856,2.584144,0.2372624,0.77026554,12.6328,08/26.0/2024,2000,g 17.0,4.0
# From unp
P/2003 U3 (NEAT),e,7.0162,347.9319,357.0353,5.042705,0.0870380,0.51062411,312.4235,08/26.0/2024,2000,g 12.0,4.0
# From MPEC 2022-YN2
P/2004 FY140 (LINEAR),e,2.1622,327.2657,254.1343,4.969943,0.0889564,0.19234158,279.0767,08/26.0/2024,2000,g 12.5,2.0
# From unp
P/2004 H2 (Larsen),e,11.7745,131.3746,104.6991,4.527109,0.1023228,0.41686239,39.5254,08/26.0/2024,2000,g  9.0,4.0
# From MPC 53304
P/2004 R3 (LINEAR-NEAT),e,12.7952,305.1221,37.4374,4.751624,0.0951570,0.25438669,102.1778,08/26.0/2024,2000,g 14.5,4.0
# From MPC 75705
P/2004 V5 (LINEAR-Hill),e,19.3458,47.7406,87.3077,8.024541,0.0433585,0.44751162,313.3117,08/26.0/2024,2000,g  8.0,4.0
# From MPC 75705
P/2004 V5-B (LINEAR-Hill),e,19.3459,47.7409,87.3113,8.024891,0.0433556,0.44753342,313.2728,08/26.0/2024,2000,g  8.0,4.0
# From MPC 54164
P/2005 E1 (Tubbiolo),e,4.2612,335.5162,193.8787,7.064593,0.0524896,0.37680317,17.4889,08/26.0/2024,2000,g 10.0,4.0
# From unp
P/2005 GF8 (LONEOS),e,1.1658,312.8413,285.4087,5.757278,0.0713474,0.51391161,128.8514,08/26.0/2024,2000,g  9.0,4.0
# From MPC 79019
P/2005 J1 (McNaught),e,31.7407,268.8004,338.9168,3.573827,0.1458827,0.56918665,313.3570,08/26.0/2024,2000,g 16.5,4.0
# From MPC 74246
P/2005 L1 (McNaught),e,7.7965,133.2833,154.9554,3.989425,0.1236912,0.23115284,124.6157,08/26.0/2024,2000,g  9.5,4.0
# From MPC 75706
P/2005 S2 (Skiff),e,3.1374,161.3480,229.8319,7.989941,0.0436404,0.19880148,289.6771,08/26.0/2024,2000,g  7.5,4.0
# From MPC 75706
P/2005 SB216 (LONEOS),e,24.1086,1.1270,83.2145,7.156483,0.0514819,0.46586715,333.9247,08/26.0/2024,2000,g 12.0,2.0
# From MPC 73461
P/2005 T3 (Read),e,6.2292,27.6386,6.9138,7.582609,0.0472037,0.17515113,325.9534,08/26.0/2024,2000,g  9.0,4.0
# From MPC 73461
P/2005 T4 (SWAN),e,160.2758,25.9110,41.8587,9.353336,0.0344552,0.93033770,237.2310,08/26.0/2024,2000,g 15.0,4.0
# From MPC 75706
P/2005 T5 (Broughton),e,21.3833,57.0675,304.7536,7.264889,0.0503339,0.55213139,345.2610,08/26.0/2024,2000,g 11.0,4.0
# From MPEC 2024-DD5
P/2005 XR132 (Spacewatch),e,14.4754,265.3966,240.7664,3.758081,0.1352866,0.43253950,185.0730,08/26.0/2024,2000,g 16.0,4.0
# From unp
P/2005 Y2 (McNaught),e,19.1487,93.8083,193.3771,6.291080,0.0624620,0.46470301,88.4502,08/26.0/2024,2000,g  9.0,4.0
# From MPEC 2024-JU4
P/2006 AH2 (Sheppard-Tholen),e,10.0162,261.6466,196.0279,6.847356,0.0550072,0.41709753,20.1983,08/26.0/2024,2000,g 13.0,4.0
# From unp
P/2006 F4 (Spacewatch),e,12.4277,183.5713,31.3088,3.488820,0.1512468,0.35003071,277.2400,08/26.0/2024,2000,g  9.0,4.0
# From MPC 75707
P/2006 HR30 (Siding Spring),e,31.9343,309.7916,117.4656,7.800919,0.0452361,0.84364917,291.9213,08/26.0/2024,2000,g 11.0,4.0
# From unp
P/2006 XG16 (Spacewatch),e,9.0627,78.4045,40.9126,3.638592,0.1420051,0.41922187,191.0164,08/26.0/2024,2000,g  9.0,4.0
# From MPC 75707
P/2007 C2 (Catalina),e,8.6123,275.2438,180.1539,7.012759,0.0530726,0.47344381,329.6084,08/26.0/2024,2000,g 10.0,4.0
# From MPC 84315
C/2007 D1 (LINEAR),e,41.5077,171.1177,339.7004,1168,0.0000247,0.99251191,0.0000,06/11.2326/2007,2000,g  3.5,4.0
# From MPEC 2024-GJ3
P/2007 K2 (Gibbs),e,7.6115,188.5577,347.1803,7.339196,0.0495714,0.68570585,316.1639,08/26.0/2024,2000,g 14.0,4.0
# From MPC 60925
P/2007 Q2 (Gilmore),e,10.1975,172.2093,162.8713,5.661122,0.0731729,0.66917143,100.1737,08/26.0/2024,2000,g 16.0,4.0
# From MPC 73462
P/2007 S1 (Zhao),e,5.9642,141.3318,245.2388,3.817549,0.1321378,0.33827815,91.0851,08/26.0/2024,2000,g 13.0,4.0
# From MPEC 2024-GJ3
C/2007 S2 (Lemmon),e,16.9041,296.1202,210.1662,12.49979,0.0223023,0.55615247,130.2623,08/26.0/2024,2000,g  6.5,4.0
# From MPC 61994
P/2007 T2 (Kowalski),e,9.7505,3.3867,359.6709,3.043702,0.1856098,0.78560334,52.4159,08/26.0/2024,2000,g 18.5,4.0
# From MPEC 2024-GJ3
C/2008 E1 (Catalina),e,34.8667,188.9792,270.2819,10.76559,0.0279028,0.55253456,163.3074,08/26.0/2024,2000,g  7.0,4.0
# From MPC 64114
P/2008 O3 (Boattini),e,32.3261,47.6083,341.1937,8.209437,0.0419019,0.69648581,247.9479,08/26.0/2024,2000,g 13.0,4.0
# From MPC 75710
P/2008 Y3 (McNaught),e,38.7788,262.8429,238.0673,8.041685,0.0432199,0.44750477,247.6863,08/26.0/2024,2000,g  8.5,4.0
# From MPC 75710
P/2009 B1 (Boattini),e,22.2571,297.1063,128.9645,6.730424,0.0564469,0.63606349,321.9928,08/26.0/2024,2000,g 13.0,4.0
# From MPC 66466
C/2009 G1 (STEREO),e,108.1789,120.8020,175.5368,464.7877,0.0000984,0.99754673,0.0000,04/18.0555/2009,2000,g  9.0,4.0
# From MPC 75710
P/2009 O3 (Hill),e,16.2661,183.7146,154.4603,7.769148,0.0455139,0.68667751,253.3659,08/26.0/2024,2000,g 12.5,4.0
# From MPC 68902
P/2009 Q5 (McNaught),e,40.9673,160.2444,209.1872,7.425485,0.0487099,0.60963767,265.5263,08/26.0/2024,2000,g 10.0,4.0
# From unp
P/2009 QG31 (La Sagra),e,5.0503,346.1261,5.7101,3.570851,0.1460651,0.39929622,72.3199,08/26.0/2024,2000,g 14.0,4.0
# From MPC112389
P/2009 T2 (La Sagra),e,27.6112,216.3470,215.9479,7.710981,0.0460299,0.76741414,245.8629,08/26.0/2024,2000,g 14.0,4.0
# From MPC105235
P/2009 WX51 (Catalina),e,9.5953,31.5340,118.2746,3.082543,0.1821127,0.73950643,251.2476,08/26.0/2024,2000,g 19.0,2.0
# From MPC 74247
P/2009 Y2 (Kowalski),e,29.9737,262.0859,172.1924,6.542760,0.0588929,0.63742838,311.2568,08/26.0/2024,2000,g 13.0,4.0
# From MPC 75711
P/2010 A3 (Hill),e,14.8191,63.6437,42.2154,6.099845,0.0654223,0.73427997,347.0827,08/26.0/2024,2000,g 14.0,4.0
# From MPC 75008
P/2010 C1 (Scotti),e,9.1162,141.6124,3.0220,7.122585,0.0518499,0.26299504,282.7256,08/26.0/2024,2000,g  9.5,4.0
# From MPC 75008
P/2010 D2 (WISE),e,57.1256,319.8733,119.9607,6.720411,0.0565731,0.45177088,300.7575,08/26.0/2024,2000,g 16.0,4.0
# From MPC 75009
P/2010 E2 (Jarnac),e,15.4081,177.8078,8.2368,8.637727,0.0388244,0.72020977,204.8456,08/26.0/2024,2000,g 14.0,4.0
# From MPC 72851
P/2010 H2 (Vales),e,14.2796,64.1872,128.0513,3.832459,0.1313674,0.19739189,334.2963,08/26.0/2024,2000,g  6.0,4.0
# From MPC 70361
P/2010 H3 (SOHO),e,23.1526,77.1892,26.0586,3.035810,0.1863340,0.98554234,0.0000,05/25.1750/2026,2000,g 20.0,2.0
# From MPEC 2024-GJ3
P/2010 H4 (Scotti),e,2.3178,44.7388,179.1430,6.613904,0.0579452,0.26663010,302.0886,08/26.0/2024,2000,g 10.5,4.0
# From MPC 74637
P/2010 H5 (Scotti),e,14.0563,24.5805,174.5924,7.175204,0.0512805,0.15388471,271.3275,08/26.0/2024,2000,g 13.0,2.0
# From MPC 98558
P/2010 J3 (McMillan),e,13.2332,106.5289,157.4667,8.986712,0.0365850,0.72428053,187.5571,08/26.0/2024,2000,g 11.0,4.0
# From MPC 84315
P/2010 JC81 (WISE),e,38.8025,30.8705,12.4773,8.102882,0.0427312,0.77827991,207.8247,08/26.0/2024,2000,g  9.0,4.0
# From MPEC 2024-H77
A/2010 LN135,e,64.5872,184.7825,181.5555,22015,0.0000003,0.99992088,0.0000,05/25.7793/2011,2000,g 14.0,2.0
# From MPC 74248
P/2010 T2 (PANSTARRS),e,7.8824,57.9432,350.9749,5.631949,0.0737422,0.32937870,13.1510,08/26.0/2024,2000,g 11.5,4.0
# From MPC 82316
P/2010 U1 (Boattini),e,8.2269,280.8061,86.4717,6.490476,0.0596059,0.24880439,315.6456,08/26.0/2024,2000,g  9.5,4.0
# From MPEC 2023-J95
C/2010 U3 (Boattini),e,55.5626,42.9887,88.0556,6889,0.0000017,0.99877523,0.0000,02/26.9183/2019,2000,g  1.0,4.0
# From MPC 79021
P/2010 UH55 (Spacewatch),e,8.0367,232.8683,225.2274,6.651151,0.0574591,0.56458444,280.9207,08/26.0/2024,2000,g 11.0,4.0
# From MPEC 2024-Q34
P/2010 WK (LINEAR),e,11.4004,11.3218,41.0028,5.766994,0.0711672,0.69095264,2.5953,08/26.0/2024,2000,g 15.0,4.0
# From MPC 84021
P/2011 C2 (Gibbs),e,10.8908,11.9548,160.2914,7.411720,0.0488456,0.27032908,227.0783,08/26.0/2024,2000,g  9.0,4.0
# From MPEC 2013-Y32
P/2011 CR42 (Catalina),e,8.4591,58.7139,172.6607,3.510981,0.1498171,0.28001309,339.1595,08/26.0/2024,2000,g  9.0,4.0
# From MPC 79866
P/2011 FR143 (Lemmon),e,15.9667,190.8606,349.7334,6.875670,0.0546678,0.45200441,271.3257,08/26.0/2024,2000,g 14.0,2.0
# From MPC 82317
P/2011 JB15 (Spacewatch-Boattini),e,19.1291,153.5774,110.8330,7.377102,0.0491898,0.31464014,227.3261,08/26.0/2024,2000,g  9.0,4.0
# From MPC 87913
